NORAD_CAT_ID,OBJECT_NAME,OBJECT_TYPE,EPOCH,MEAN_MOTION,ECCENTRICITY,INCLINATION,RA_OF_ASC_NODE,ARG_OF_PERICENTER,MEAN_ANOMALY,BSTAR,MEAN_MOTION_DOT,MEAN_MOTION_DDOT,TLE_LINE0,TLE_LINE1,TLE_LINE2,SEMIMAJOR_AXIS,PERIOD,APOGEE,PERIGEE,DECAYED
52469.0,STARLINK-3828,PAYLOAD,2024-06-30 15:09:11,15.08839182,0.0001015,53.2179,309.2077,100.4002,259.7105,8.5754e-05,1.077e-05,0.0,0 STARLINK-3828,1 52469U 22049U   24182.63137912  .00001077  00000-0  85754-4 0  9990,2 52469  53.2179 309.2077 0001015 100.4002 259.7105 15.08839182119091,6917.883,95.438,540.45,539.046,0.0
52469.0,STARLINK-3828,PAYLOAD,2024-06-30 18:19:56,15.08852748,0.0001377,53.218,308.6093,105.1736,254.9409,-2.9647e-06,-3.35e-06,0.0,0 STARLINK-3828,1 52469U 22049U   24182.76385361 -.00000335  00000-0 -29647-5 0  9995,2 52469  53.2180 308.6093 0001377 105.1736 254.9409 15.08852748119278,6917.841,95.437,540.659,538.754,0.0
52469.0,STARLINK-3828,PAYLOAD,2024-07-01 13:24:35,15.0882146,0.0001294,53.2172,305.0404,112.8266,247.2863,0.00020075,2.907e-05,0.0,0 STARLINK-3828,1 52469U 22049U   24183.55874844  .00002907  00000-0  20075-3 0  9991,2 52469  53.2172 305.0404 0001294 112.8266 247.2863 15.08821460119396,6917.937,95.439,540.697,538.907,0.0
52469.0,STARLINK-3828,PAYLOAD,2024-07-01 14:59:58,15.08822507,0.0001249,53.2171,304.7419,119.008,241.1037,0.00020206,2.928e-05,0.0,0 STARLINK-3828,1 52469U 22049U   24183.62498654  .00002928  00000-0  20206-3 0  9999,2 52469  53.2171 304.7419 0001249 119.0080 241.1037 15.08822507119243,6917.934,95.439,540.663,538.935,0.0
52469.0,STARLINK-3828,PAYLOAD,2024-07-02 00:32:16,15.08841277,0.0001121,53.2172,302.9609,120.1316,239.9787,0.00013496,1.861e-05,0.0,0 STARLINK-3828,1 52469U 22049U   24184.02241759  .00001861  00000-0  13496-3 0  9994,2 52469  53.2172 302.9609 0001121 120.1316 239.9787 15.08841277119465,6917.876,95.437,540.517,538.966,0.0
52469.0,STARLINK-3828,PAYLOAD,2024-07-02 13:15:23,15.08827903,0.000136,53.2172,300.5838,107.1586,252.9555,-1.238e-05,-4.85e-06,0.0,0 STARLINK-3828,1 52469U 22049U   24184.55235496 -.00000485  00000-0 -12380-4 0  9998,2 52469  53.2172 300.5838 0001360 107.1586 252.9555 15.08827903119549,6917.917,95.438,540.723,538.842,0.0
52469.0,STARLINK-3828,PAYLOAD,2024-07-02 14:50:46,15.08827816,0.0001081,53.2176,300.288,97.8464,262.2651,6.4497e-05,7.39e-06,0.0,0 STARLINK-3828,1 52469U 22049U   24184.61859331  .00000739  00000-0  64497-4 0  9991,2 52469  53.2176 300.2880 0001081  97.8464 262.2651 15.08827816119394,6917.918,95.438,540.53,539.035,0.0
52469.0,STARLINK-3828,PAYLOAD,2024-07-02 18:01:32,15.0883795,9.91e-05,53.2162,299.6887,91.6799,268.4306,-1.6535e-05,-5.51e-06,0.0,0 STARLINK-3828,1 52469U 22049U   24184.75106943 -.00000551  00000-0 -16535-4 0  9994,2 52469  53.2162 299.6887 0000991  91.6799 268.4306 15.08837950119574,6917.887,95.438,540.437,539.066,0.0
52469.0,STARLINK-3828,PAYLOAD,2024-07-03 14:41:32,15.0884051,9.03e-05,53.2158,295.8239,98.4238,261.6856,9.4917e-05,1.223e-05,0.0,0 STARLINK-3828,1 52469U 22049U   24185.61218530  .00001223  00000-0  94917-4 0  9991,2 52469  53.2158 295.8239 0000903  98.4238 261.6856 15.08840510119542,6917.879,95.438,540.369,539.119,0.0
52469.0,STARLINK-3828,PAYLOAD,2024-07-04 00:13:51,15.08848166,9.59e-05,53.2163,294.04,99.9022,260.2078,8.1711e-05,1.013e-05,0.0,0 STARLINK-3828,1 52469U 22049U   24186.00962010  .00001013  00000-0  81711-4 0  9999,2 52469  53.2163 294.0400 0000959  99.9022 260.2078 15.08848166119767,6917.855,95.437,540.384,539.057,0.0
52469.0,STARLINK-3828,PAYLOAD,2024-07-04 12:56:57,15.08826928,0.000123,53.2171,291.6622,98.7067,261.4064,3.9367e-06,-2.25e-06,0.0,0 STARLINK-3828,1 52469U 22049U   24186.53955937 -.00000225  00000-0  39367-5 0  9993,2 52469  53.2171 291.6622 0001230  98.7067 261.4064 15.08826928119843,6917.92,95.438,540.636,538.934,0.0
52469.0,STARLINK-3828,PAYLOAD,2024-07-05 00:04:38,15.08845564,8.41e-05,53.2163,289.5799,90.3167,269.7921,9.9973e-05,1.304e-05,0.0,0 STARLINK-3828,1 52469U 22049U   24187.00322462  .00001304  00000-0  99973-4 0  9993,2 52469  53.2163 289.5799 0000841  90.3167 269.7921 15.08845564119919,6917.863,95.437,540.31,539.147,0.0
52469.0,STARLINK-3828,PAYLOAD,2024-07-05 12:47:44,15.08837477,9.41e-05,53.2159,287.2036,86.842,273.268,6.6769e-05,7.75e-06,0.0,0 STARLINK-3828,1 52469U 22049U   24187.53315069  .00000775  00000-0  66769-4 0  9994,2 52469  53.2159 287.2036 0000941  86.8420 273.2680 15.08837477119990,6917.888,95.438,540.404,539.102,0.0
52469.0,STARLINK-3828,PAYLOAD,2024-07-05 14:23:06,15.0884272,9.8e-05,53.2165,286.9057,89.2494,270.861,9.2596e-05,1.186e-05,0.0,0 STARLINK-3828,1 52469U 22049U   24187.59938655  .00001186  00000-0  92596-4 0  9996,2 52469  53.2165 286.9057 0000980  89.2494 270.8610 15.08842720119844,6917.872,95.437,540.415,539.059,0.0
52469.0,STARLINK-3828,PAYLOAD,2024-07-05 23:55:24,15.08854973,9.8e-05,53.2161,285.1188,89.8432,270.2672,8.9765e-05,1.142e-05,0.0,0 STARLINK-3828,1 52469U 22049U   24187.99681617  .00001142  00000-0  89765-4 0  9999,2 52469  53.2161 285.1188 0000980  89.8432 270.2672 15.08854973120065,6917.835,95.437,540.378,539.022,0.0
52469.0,STARLINK-3828,PAYLOAD,2024-07-06 12:38:31,15.08835625,0.0001133,53.2169,282.7375,96.1372,263.9749,-4.9502e-05,-1.075e-05,0.0,0 STARLINK-3828,1 52469U 22049U   24188.52675425 -.00001075  00000-0 -49502-4 0  9991,2 52469  53.2169 282.7375 0001133  96.1372 263.9749 15.08835625120145,6917.894,95.438,540.543,538.975,0.0
52469.0,STARLINK-3828,PAYLOAD,2024-07-06 23:46:13,15.08842482,0.0001426,53.2182,280.6592,92.7914,267.3242,-6.4071e-06,-3.9e-06,0.0,0 STARLINK-3828,1 52469U 22049U   24188.99042977 -.00000390  00000-0 -64071-5 0  9990,2 52469  53.2182 280.6592 0001426  92.7914 267.3242 15.08842482120210,6917.873,95.437,540.724,538.751,0.0
52469.0,STARLINK-3828,PAYLOAD,2024-07-07 10:53:55,15.08835858,0.0001377,53.2182,278.5781,93.4366,266.6784,1.3403e-05,-7.5e-07,0.0,0 STARLINK-3828,1 52469U 22049U   24189.45411368 -.00000075  00000-0  13403-4 0  9997,2 52469  53.2182 278.5781 0001377  93.4366 266.6784 15.08835858120122,6917.893,95.438,540.711,538.805,0.0
52469.0,STARLINK-3828,PAYLOAD,2024-07-08 12:20:05,15.08836249,0.0001454,53.218,273.8205,97.9663,262.1494,6.9044e-05,8.11e-06,0.0,0 STARLINK-3828,1 52469U 22049U   24190.51395191  .00000811  00000-0  69044-4 0  9990,2 52469  53.2180 273.8205 0001454  97.9663 262.1494 15.08836249120443,6917.892,95.438,540.763,538.751,0.0
52469.0,STARLINK-3828,PAYLOAD,2024-07-09 12:10:52,15.08840318,0.0001268,53.2164,269.358,96.4257,263.6879,4.8019e-05,4.76e-06,0.0,0 STARLINK-3828,1 52469U 22049U   24191.50755067  .00000476  00000-0  48019-4 0  9998,2 52469  53.2164 269.3580 0001268  96.4257 263.6879 15.08840318120431,6917.879,95.438,540.622,538.867,0.0
52469.0,STARLINK-3828,PAYLOAD,2024-07-10 12:01:39,15.08834381,0.000129,53.2162,264.8988,96.3075,263.8064,1.098e-05,-1.13e-06,0.0,0 STARLINK-3828,1 52469U 22049U   24192.50115724 -.00000113  00000-0  10980-4 0  9994,2 52469  53.2162 264.8988 0001290  96.3075 263.8064 15.08834381120748,6917.898,95.438,540.655,538.87,0.0
52469.0,STARLINK-3828,PAYLOAD,2024-07-11 13:27:50,15.08836628,0.0001364,53.2162,260.1412,95.5556,264.5592,4.8673e-05,4.87e-06,0.0,0 STARLINK-3828,1 52469U 22049U   24193.56099732  .00000487  00000-0  48673-4 0  9994,2 52469  53.2162 260.1412 0001364  95.5556 264.5592 15.08836628120746,6917.891,95.438,540.699,538.812,0.0
52469.0,STARLINK-3828,PAYLOAD,2024-07-11 15:03:13,15.08839397,0.0001285,53.2157,259.8433,91.1093,269.0046,6.7829e-05,7.92e-06,0.0,0 STARLINK-3828,1 52469U 22049U   24193.62723509  .00000792  00000-0  67829-4 0  9990,2 52469  53.2157 259.8433 0001285  91.1093 269.0046 15.08839397120917,6917.882,95.438,540.636,538.858,0.0
52469.0,STARLINK-3828,PAYLOAD,2024-07-12 13:18:36,15.08841699,0.0001316,53.2158,255.6799,85.3962,274.718,0.00010149,1.328e-05,0.0,0 STARLINK-3828,1 52469U 22049U   24194.55459431  .00001328  00000-0  10149-3 0  9991,2 52469  53.2158 255.6799 0001316  85.3962 274.7180 15.08841699120899,6917.875,95.437,540.651,538.83,0.0
52469.0,STARLINK-3828,PAYLOAD,2024-07-12 21:15:32,15.08843879,0.0001298,53.2158,254.193,87.0321,273.0819,0.00011757,1.584e-05,0.0,0 STARLINK-3828,1 52469U 22049U   24194.88579178  .00001584  00000-0  11757-3 0  9998,2 52469  53.2158 254.1930 0001298  87.0321 273.0819 15.08843879121105,6917.869,95.437,540.631,538.836,0.0
52469.0,STARLINK-3828,PAYLOAD,2024-07-13 11:34:01,15.08835973,0.0001363,53.2156,251.517,88.1599,271.955,1.7195e-05,-1.4e-07,0.0,0 STARLINK-3828,1 52469U 22049U   24195.48196189 -.00000014  00000-0  17195-4 0  9993,2 52469  53.2156 251.5170 0001363  88.1599 271.9550 15.08835973121196,6917.893,95.438,540.701,538.815,0.0
52469.0,STARLINK-3828,PAYLOAD,2024-07-13 21:06:19,15.08844263,0.0001402,53.2157,249.7329,86.036,274.0792,5.0374e-05,5.14e-06,0.0,0 STARLINK-3828,1 52469U 22049U   24195.87939621  .00000514  00000-0  50374-4 0  9992,2 52469  53.2157 249.7329 0001402  86.0360 274.0792 15.08844263121250,6917.867,95.437,540.702,538.762,0.0
52469.0,STARLINK-3828,PAYLOAD,2024-07-14 09:49:24,15.08846405,0.0001391,53.2154,247.3541,87.1948,272.9204,5.9603e-05,6.61e-06,0.0,0 STARLINK-3828,1 52469U 22049U   24196.40931406  .00000661  00000-0  59603-4 0  9992,2 52469  53.2154 247.3541 0001391  87.1948 272.9204 15.08846405121174,6917.861,95.437,540.688,538.764,0.0
52469.0,STARLINK-3828,PAYLOAD,2024-07-14 20:57:06,15.0885369,0.0001418,53.2155,245.2726,86.8095,273.306,0.00010464,1.378e-05,0.0,0 STARLINK-3828,1 52469U 22049U   24196.87298619  .00001378  00000-0  10464-3 0  9992,2 52469  53.2155 245.2726 0001418  86.8095 273.3060 15.08853690121401,6917.839,95.437,540.684,538.723,0.0
52469.0,STARLINK-3828,PAYLOAD,2024-07-15 09:40:12,15.08829478,0.0001404,53.2159,242.895,93.0234,267.0918,6.5481e-05,7.54e-06,0.0,0 STARLINK-3828,1 52469U 22049U   24197.40292358  .00000754  00000-0  65481-4 0  9993,2 52469  53.2159 242.8950 0001404  93.0234 267.0918 15.08829478121484,6917.913,95.438,540.749,538.806,0.0
